EUTELSAT 16A            
1 37836U 11057A   25195.93864287  .00000111  00000+0  00000+0 0  9991
2 37836   0.0626   0.6057 0005302 113.4465 172.8806  1.00270351  3942
EUTELSAT 21B            
1 38992U 12062B   25195.92753023  .00000137  00000+0  00000+0 0  9994
2 38992   0.0652   0.7413 0002931 113.1020 174.6685  1.00270709 46445
EUTELSAT 70B            
1 39020U 12069A   25195.95808541 -.00000036  00000+0  00000+0 0  9992
2 39020   0.0608   2.9091 0003509 111.4547 234.0857  1.00271141 46120
EUTELSAT 117 WEST A     
1 39122U 13012A   25196.53030792 -.00000005  00000+0  00000+0 0  9990
2 39122   0.0286 299.7618 0003012 180.5695 247.3883  1.00271008 45099
EUTELSAT 7B             
1 39163U 13022A   25195.93864287  .00000056  00000+0  00000+0 0  9998
2 39163   0.0645   7.6795 0003303  38.0052 232.2668  1.00272711 44569
EXPRESS-AT1             
1 39612U 14010A   25196.07002983  .00000086  00000+0  00000+0 0  9991
2 39612   0.0152 355.1330 0000174  81.8764 297.3780  1.00273396 41672
EXPRESS-AT2             
1 39613U 14010B   25195.68558752 -.00000274  00000+0  00000+0 0  9998
2 39613   0.0269 284.7331 0000578 150.4615 244.2439  1.00272904 41111
EUTELSAT 3B             
1 39773U 14030A   25195.63128654  .00000027  00000+0  00000+0 0  9991
2 39773   0.0596   0.8797 0004073 122.5998  39.6084  1.00270666 40688
